STARLINK-3285           
1 50181U 21125AB  26068.80306852  .00005873  00000+0  38691-3 0  9992
2 50181  53.2154 248.6220 0000990  96.1062 264.0043 15.08829905236628
SEDNA-2                 
1 63153U 25009DQ  26068.79893845  .00008085  00000+0  49393-3 0  9990
2 63153  97.4615 144.8075 0010309  53.0260 307.1912 15.10492622 63116
